{"type": "FeatureCollection", "features": [ {"type": "Feature", "properties": {"norad_id": 36278, "name": "FENGYUN 1C DEB", "group": "fengyun-1c-debris", "lat": 6.658629422615598, "lon": -97.92718402876996, "alt_km": 821.3371444913373, "timestamp": "2025-12-10T21:43:22.376260+00:00", "meta": {"OBJECT_NAME": "FENGYUN 1C DEB", "OBJECT_ID": "1999-025DXF", "EPOCH": "2025-12-04T01:21:08.443872", "MEAN_MOTION": 14.17353569, "ECCENTRICITY": 0.00613363, "INCLINATION": 99.1236, "RA_OF_ASC_NODE": 256.1206, "ARG_OF_PERICENTER": 315.5831, "MEAN_ANOMALY": 44.0433, "EPHEMERIS_TYPE": 0, "CLASSIFICATION_TYPE": "U", "NORAD_CAT_ID": 36278, "ELEMENT_SET_NO": 999, "REV_AT_EPOCH": 93353, "BSTAR": 0.0008477729, "MEAN_MOTION_DOT": 1.7e-05, "MEAN_MOTION_DDOT": 0}, "tle": {"line1": "1 36278U 99025DXF 25338.05634773  .00001700  00000+0  84777-3 0  9990", "line2": "2 36278  99.1236 256.1206 0061336 315.5831  44.0433 14.17353569933530"}}, "geometry": {"type": "Point", "coordinates": [-97.92718402876996, 6.658629422615598]}}, {"type": "Feature", "properties": {"norad_id": 36279, "name": "FENGYUN 1C DEB", "group": "fengyun-1c-debris", "lat": 46.97222776504388, "lon": -46.30122763498404, "alt_km": 794.6013640385827, "timestamp": "2025-12-10T21:43:22.376270+00:00", "meta": {"OBJECT_NAME": "FENGYUN 1C DEB", "OBJECT_ID": "1999-025DXG", "EPOCH": "2025-12-08T04:59:58.612992", "MEAN_MOTION": 14.147242, "ECCENTRICITY": 0.00630677, "INCLINATION": 98.5605, "RA_OF_ASC_NODE": 320.3989, "ARG_OF_PERICENTER": 68.1387, "MEAN_ANOMALY": 292.6479, "EPHEMERIS_TYPE": 0, "CLASSIFICATION_TYPE": "U", "NORAD_CAT_ID": 36279, "ELEMENT_SET_NO": 999, "REV_AT_EPOCH": 88975, "BSTAR": 0.00024838235, "MEAN_MOTION_DOT": 4.46e-06, "MEAN_MOTION_DDOT": 0}, "tle": {"line1": "1 36279U 99025DXG 25342.20831728  .00000446  00000+0  24838-3 0  9990", "line2": "2 36279  98.5605 320.3989 0063067  68.1387 292.6479 14.14724200889752"}}, "geometry": {"type": "Point", "coordinates": [-46.30122763498404, 46.97222776504388]}}, {"type": "Feature", "properties": {"norad_id": 36280, "name": "FENGYUN 1C DEB", "group": "fengyun-1c-debris", "lat": 59.25594547758184, "lon": -151.01757012388344, "alt_km": 824.1846141189899, "timestamp": "2025-12-10T21:43:22.376280+00:00", "meta": {"OBJECT_NAME": "FENGYUN 1C DEB", "OBJECT_ID": "1999-025DXH", "EPOCH": "2025-12-08T20:36:31.756896", "MEAN_MOTION": 14.09721696, "ECCENTRICITY": 0.00633707, "INCLINATION": 98.7669, "RA_OF_ASC_NODE": 11.9526, "ARG_OF_PERICENTER": 76.4242, "MEAN_ANOMALY": 102.7342, "EPHEMERIS_TYPE": 0, "CLASSIFICATION_TYPE": "U", "NORAD_CAT_ID": 36280, "ELEMENT_SET_NO": 999, "REV_AT_EPOCH": 86299, "BSTAR": 0.0014880766, "MEAN_MOTION_DOT": 2.619e-05, "MEAN_MOTION_DDOT": 0}, "tle": {"line1": "1 36280U 99025DXH 25342.85870089  .00002619  00000+0  14881-2 0  9996", "line2": "2 36280  98.7669  11.9526 0063370  76.4242 102.7342 14.09721696862992"}}, "geometry": {"type": "Point", "coordinates": [-151.01757012388344, 59.25594547758184]}}, {"type": "Feature", "properties": {"norad_id": 36281, "name": "FENGYUN 1C DEB", "group": "fengyun-1c-debris", "lat": 22.33995448671718, "lon": -96.89636745556234, "alt_km": 1038.8993490976818, "timestamp": "2025-12-10T21:43:22.376290+00:00", "meta": {"OBJECT_NAME": "FENGYUN 1C DEB", "OBJECT_ID": "1999-025DXJ", "EPOCH": "2025-12-10T05:43:19.977024", "MEAN_MOTION": 13.60227327, "ECCENTRICITY": 0.0289799, "INCLINATION": 99.2579, "RA_OF_ASC_NODE": 266.3152, "ARG_OF_PERICENTER": 117.3241, "MEAN_ANOMALY": 245.772, "EPHEMERIS_TYPE": 0, "CLASSIFICATION_TYPE": "U", "NORAD_CAT_ID": 36281, "ELEMENT_SET_NO": 999, "REV_AT_EPOCH": 84483, "BSTAR": 0.0036872, "MEAN_MOTION_DOT": 3.607e-05, "MEAN_MOTION_DDOT": 0}, "tle": {"line1": "1 36281U 99025DXJ 25344.23842566  .00003607  00000+0  36872-2 0  9992", "line2": "2 36281  99.2579 266.3152 0289799 117.3241 245.7720 13.60227327844838"}}, "geometry": {"type": "Point", "coordinates": [-96.89636745556234, 22.33995448671718]}}, {"type": "Feature", "properties": {"norad_id": 36283, "name": "FENGYUN 1C DEB", "group": "fengyun-1c-debris", "lat": -27.555168277971273, "lon": -45.43369009478076, "alt_km": 548.4989788878511, "timestamp": "2025-12-10T21:43:22.376300+00:00", "meta": {"OBJECT_NAME": "FENGYUN 1C DEB", "OBJECT_ID": "1999-025DXL", "EPOCH": "2025-12-09T02:47:32.160480", "MEAN_MOTION": 15.05915061, "ECCENTRICITY": 0.00683492, "INCLINATION": 99.4217, "RA_OF_ASC_NODE": 307.4131, "ARG_OF_PERICENTER": 61.5319, "MEAN_ANOMALY": 299.2764, "EPHEMERIS_TYPE": 0, "CLASSIFICATION_TYPE": "U", "NORAD_CAT_ID": 36283, "ELEMENT_SET_NO": 999, "REV_AT_EPOCH": 66611, "BSTAR": 0.0023687932, "MEAN_MOTION_DOT": 0.00036387, "MEAN_MOTION_DDOT": 0}, "tle": {"line1": "1 36283U 99025DXL 25343.11634445  .00036387  00000+0  23688-2 0  9997", "line2": "2 36283  99.4217 307.4131 0068349  61.5319 299.2764 15.05915061666112"}}, "geometry": {"type": "Point", "coordinates": [-45.43369009478076, -27.555168277971273]}}, {"type": "Feature", "properties": {"norad_id": 36644, "name": "FENGYUN 1C DEB", "group": "fengyun-1c-debris", "lat": -40.93733503643684, "lon": -63.6223950227206, "alt_km": 872.366607266038, "timestamp": "2025-12-10T21:43:22.376310+00:00", "meta": {"OBJECT_NAME": "FENGYUN 1C DEB", "OBJECT_ID": "1999-025DXN", "EPOCH": "2025-12-06T15:56:19.275936", "MEAN_MOTION": 13.59167664, "ECCENTRICITY": 0.02857814, "INCLINATION": 98.4234, "RA_OF_ASC_NODE": 120.1104, "ARG_OF_PERICENTER": 196.1478, "MEAN_ANOMALY": 163.0413, "EPHEMERIS_TYPE": 0, "CLASSIFICATION_TYPE": "U", "NORAD_CAT_ID": 36644, "ELEMENT_SET_NO": 999, "REV_AT_EPOCH": 61485, "BSTAR": 0.0026178612, "MEAN_MOTION_DOT": 2.485e-05, "MEAN_MOTION_DDOT": 0}, "tle": {"line1": "1 36644U 99025DXN 25340.66411199  .00002485  00000+0  26179-2 0  9994", "line2": "2 36644  98.4234 120.1104 0285781 196.1478 163.0413 13.59167664614851"}}, "geometry": {"type": "Point", "coordinates": [-63.6223950227206, -40.93733503643684]}}, {"type": "Feature", "properties": {"norad_id": 36647, "name": "FENGYUN 1C DEB", "group": "fengyun-1c-debris", "lat": -0.5002921706892147, "lon": -53.83754200450615, "alt_km": 1033.029600341285, "timestamp": "2025-12-10T21:43:22.376321+00:00", "meta": {"OBJECT_NAME": "FENGYUN 1C DEB", "OBJECT_ID": "1999-025DXR", "EPOCH": "2025-12-09T15:26:26.721312", "MEAN_MOTION": 13.8878437, "ECCENTRICITY": 0.0239235, "INCLINATION": 96.1218, "RA_OF_ASC_NODE": 125.385, "ARG_OF_PERICENTER": 308.9455, "MEAN_ANOMALY": 49.0604, "EPHEMERIS_TYPE": 0, "CLASSIFICATION_TYPE": "U", "NORAD_CAT_ID": 36647, "ELEMENT_SET_NO": 999, "REV_AT_EPOCH": 30369, "BSTAR": 0.0035802, "MEAN_MOTION_DOT": 5.41e-05, "MEAN_MOTION_DDOT": 0}, "tle": {"line1": "1 36647U 99025DXR 25343.64336483  .00005410  00000+0  35802-2 0  9994", "line2": "2 36647  96.1218 125.3850 0239235 308.9455  49.0604 13.88784370303690"}}, "geometry": {"type": "Point", "coordinates": [-53.83754200450615, -0.5002921706892147]}}, {"type": "Feature", "properties": {"norad_id": 36652, "name": "FENGYUN 1C DEB", "group": "fengyun-1c-debris", "lat": 48.78335413620289, "lon": -102.59813167702158, "alt_km": 835.5529394385303, "timestamp": "2025-12-10T21:43:22.376331+00:00", "meta": {"OBJECT_NAME": "FENGYUN 1C DEB", "OBJECT_ID": "1999-025DXW", "EPOCH": "2025-12-09T16:25:20.403552", "MEAN_MOTION": 14.22780284, "ECCENTRICITY": 0.00506653, "INCLINATION": 98.941, "RA_OF_ASC_NODE": 65.8094, "ARG_OF_PERICENTER": 2.278, "MEAN_ANOMALY": 357.8619, "EPHEMERIS_TYPE": 0, "CLASSIFICATION_TYPE": "U", "NORAD_CAT_ID": 36652, "ELEMENT_SET_NO": 999, "REV_AT_EPOCH": 64281, "BSTAR": 0.0025536763, "MEAN_MOTION_DOT": 5.761e-05, "MEAN_MOTION_DDOT": 0}, "tle": {"line1": "1 36652U 99025DXW 25343.68426393  .00005761  00000+0  25537-2 0  9997", "line2": "2 36652  98.9410  65.8094 0050665   2.2780 357.8619 14.22780284642816"}}, "geometry": {"type": "Point", "coordinates": [-102.59813167702158, 48.78335413620289]}}, {"type": "Feature", "properties": {"norad_id": 36657, "name": "FENGYUN 1C DEB", "group": "fengyun-1c-debris", "lat": 28.320838325832263, "lon": 130.42416816054, "alt_km": 619.8393002254861, "timestamp": "2025-12-10T21:43:22.376341+00:00", "meta": {"OBJECT_NAME": "FENGYUN 1C DEB", "OBJECT_ID": "1999-025DYB", "EPOCH": "2025-12-09T21:00:52.013664", "MEAN_MOTION": 14.65488213, "ECCENTRICITY": 0.01058591, "INCLINATION": 99.4125, "RA_OF_ASC_NODE": 134.3752, "ARG_OF_PERICENTER": 75.6977, "MEAN_ANOMALY": 285.5949, "EPHEMERIS_TYPE": 0, "CLASSIFICATION_TYPE": "U", "NORAD_CAT_ID": 36657, "ELEMENT_SET_NO": 999, "REV_AT_EPOCH": 66214, "BSTAR": 0.00094501863, "MEAN_MOTION_DOT": 5.498e-05, "MEAN_MOTION_DDOT": 0}, "tle": {"line1": "1 36657U 99025DYB 25343.87560201  .00005498  00000+0  94502-3 0  9996", "line2": "2 36657  99.4125 134.3752 0105859  75.6977 285.5949 14.65488213662146"}}, "geometry": {"type": "Point", "coordinates": [130.42416816054, 28.320838325832263]}}, {"type": "Feature", "properties": {"norad_id": 36659, "name": "FENGYUN 1C DEB", "group": "fengyun-1c-debris", "lat": 1.4163912081528967, "lon": 168.5348507107302, "alt_km": 954.3604720623016, "timestamp": "2025-12-10T21:43:22.376354+00:00", "meta": {"OBJECT_NAME": "FENGYUN 1C DEB", "OBJECT_ID": "1999-025DYD", "EPOCH": "2025-12-08T06:34:16.718304", "MEAN_MOTION": 13.87363788, "ECCENTRICITY": 0.01358311, "INCLINATION": 99.8536, "RA_OF_ASC_NODE": 345.5157, "ARG_OF_PERICENTER": 86.5848, "MEAN_ANOMALY": 275.0833, "EPHEMERIS_TYPE": 0, "CLASSIFICATION_TYPE": "U", "NORAD_CAT_ID": 36659, "ELEMENT_SET_NO": 999, "REV_AT_EPOCH": 60363, "BSTAR": 0.0010441294, "MEAN_MOTION_DOT": 1.275e-05, "MEAN_MOTION_DDOT": 0}, "tle": {"line1": "1 36659U 99025DYD 25342.27380461  .00001275  00000+0  10441-2 0  9997", "line2": "2 36659  99.8536 345.5157 0135831  86.5848 275.0833 13.87363788603631"}}, "geometry": {"type": "Point", "coordinates": [168.5348507107302, 1.4163912081528967]}}]}